NORAD_CAT_ID,OBJECT_NAME,OBJECT_TYPE,EPOCH,MEAN_MOTION,ECCENTRICITY,INCLINATION,RA_OF_ASC_NODE,ARG_OF_PERICENTER,MEAN_ANOMALY,BSTAR,MEAN_MOTION_DOT,MEAN_MOTION_DDOT,TLE_LINE0,TLE_LINE1,TLE_LINE2,SEMIMAJOR_AXIS,PERIOD,APOGEE,PERIGEE,DECAYED
54804.0,STARLINK-5422,PAYLOAD,2024-02-07 14:18:16,15.08839627,0.0001339,53.2167,205.5621,93.2618,266.8527,3.6309e-05,2.9e-06,0.0,0 STARLINK-5422,1 54804U 22175AY  24038.59602941  .00000290  00000-0  36309-4 0  9997,2 54804  53.2167 205.5621 0001339  93.2618 266.8527 15.08839627 65234,6917.882,95.438,540.673,538.82,0.0
54804.0,STARLINK-5422,PAYLOAD,2024-02-07 17:29:03,15.08840496,0.0001298,53.2164,204.967,93.5847,266.5293,4.0149e-05,3.51e-06,0.0,0 STARLINK-5422,1 54804U 22175AY  24038.72850856  .00000351  00000-0  40149-4 0  9997,2 54804  53.2164 204.9670 0001298  93.5847 266.5293 15.08840496 63094,6917.879,95.438,540.642,538.846,0.0
54804.0,STARLINK-5422,PAYLOAD,2024-02-08 14:08:41,15.09048708,0.0002443,53.2168,201.1004,36.5778,323.5381,0.0014952,0.00023725,0.0,0 STARLINK-5422,1 54804U 22175AY  24039.58937308  .00023725  00000-0  14952-2 0  9991,2 54804  53.2168 201.1004 0002443  36.5778 323.5381 15.09048708 65384,6917.243,95.424,540.797,537.418,0.0
54804.0,STARLINK-5422,PAYLOAD,2024-02-08 17:19:05,15.09328419,0.0001104,53.2162,200.5038,83.866,276.2458,0.003768,0.00061012,0.0,0 STARLINK-5422,1 54804U 22175AY  24039.72159330  .00061012  00000-0  37680-2 0  9992,2 54804  53.2162 200.5038 0001104  83.8660 276.2458 15.09328419 63248,6916.388,95.407,539.016,537.489,0.0
54804.0,STARLINK-5422,PAYLOAD,2024-02-08 22:05:04,15.09406049,0.0001116,53.216,199.611,80.4796,279.6323,0.0042173,0.00068541,0.0,0 STARLINK-5422,1 54804U 22175AY  24039.92019192  .00068541  00000-0  42173-2 0  9992,2 54804  53.2160 199.6110 0001116  80.4796 279.6323 15.09406049 65438,6916.151,95.402,538.788,537.244,0.0
54804.0,STARLINK-5422,PAYLOAD,2024-02-09 10:47:32,15.09653231,4.19e-05,53.2152,197.2251,67.5274,292.5763,0.0054848,0.00090111,0.0,0 STARLINK-5422,1 54804U 22175AY  24040.44968033  .00090111  00000-0  54848-2 0  9998,2 54804  53.2152 197.2251 0000419  67.5274 292.5763 15.09653231 63359,6915.396,95.386,537.551,536.971,0.0
54804.0,STARLINK-5422,PAYLOAD,2024-02-09 22:00:00,15.10432476,9.44e-05,53.2147,195.1297,83.89,295.8651,0.003328,0.00055476,0.0,0 STARLINK-5422,1 54804U 22175AY  24040.91667824  .00055476  00000-0  33280-2 0  9996,2 54804  53.2147 195.1297 0000944  83.8900 295.8651 15.10432476 63428,6913.017,95.337,535.535,534.23,0.0
54804.0,STARLINK-5422,PAYLOAD,2024-02-10 14:00:01,15.10504529,9.37e-05,53.2153,192.1288,91.3757,315.4493,-0.0024864,-0.00041478,0.0,0 STARLINK-5422,1 54804U 22175AY  24041.58334491 -.00041478  00000-0 -24864-2 0  9998,2 54804  53.2153 192.1288 0000937  91.3757 315.4493 15.10504529 63521,6912.797,95.332,535.31,534.015,0.0
54804.0,STARLINK-5422,PAYLOAD,2024-02-10 22:00:01,15.10461299,9.08e-05,53.2151,190.6292,72.9903,347.482,0.0017877,0.0002958,0.0,0 STARLINK-5422,1 54804U 22175AY  24041.91668981  .00029580  00000-0  17877-2 0  9993,2 54804  53.2151 190.6292 0000908  72.9903 347.4820 15.10461299  5737,6912.929,95.335,535.422,534.166,0.0
54804.0,STARLINK-5422,PAYLOAD,2024-02-11 06:00:00,15.10455471,8.64e-05,53.2153,189.1274,86.8483,347.1246,0.0039495,0.00066031,0.0,0 STARLINK-5422,1 54804U 22175AY  24042.25001157  .00066031  00000-0  39495-2 0  9999,2 54804  53.2153 189.1274 0000864  86.8483 347.1246 15.10455471 63626,6912.947,95.335,535.409,534.215,0.0
54804.0,STARLINK-5422,PAYLOAD,2024-02-11 14:00:01,15.10538668,0.0001031,53.2154,187.6284,80.2273,7.2986,-0.0060332,-0.00099517,0.0,0 STARLINK-5422,1 54804U 22175AY  24042.58334491 -.00099517  00000-0 -60332-2 0  9996,2 54804  53.2154 187.6284 0001031  80.2273   7.2986 15.10538668  5837,6912.693,95.33,535.271,533.845,0.0
54804.0,STARLINK-5422,PAYLOAD,2024-02-11 22:00:01,15.10448675,0.0001158,53.215,186.1287,74.0602,27.1432,0.0023028,0.00038221,0.0,0 STARLINK-5422,1 54804U 22175AY  24042.91668981  .00038221  00000-0  23028-2 0  9991,2 54804  53.2150 186.1287 0001158  74.0602  27.1432 15.10448675 63724,6912.968,95.336,535.633,534.032,0.0
54804.0,STARLINK-5422,PAYLOAD,2024-02-12 14:00:01,15.10536472,0.0001227,53.2151,183.1282,86.2682,41.966,-0.0060418,-0.00099651,0.0,0 STARLINK-5422,1 54804U 22175AY  24043.58334491 -.00099651  00000-0 -60418-2 0  9991,2 54804  53.2151 183.1282 0001227  86.2682  41.9660 15.10536472  5824,6912.7,95.33,535.413,533.717,0.0
54804.0,STARLINK-5422,PAYLOAD,2024-02-12 22:00:00,15.10501352,0.0001241,53.2147,181.6284,76.6692,65.1543,0.0018421,0.00030527,0.0,0 STARLINK-5422,1 54804U 22175AY  24043.91667824  .00030527  00000-0  18421-2 0  9999,2 54804  53.2147 181.6284 0001241  76.6692  65.1543 15.10501352 63870,6912.807,95.333,535.53,533.814,0.0
54804.0,STARLINK-5422,PAYLOAD,2024-02-13 00:00:02,15.10541421,0.0001256,53.2147,181.2528,82.6859,152.5906,-0.0033748,-0.00056137,0.0,0 STARLINK-5422,1 54804U 22175AY  24044.00002315 -.00056137  00000-0 -33748-2 0  9994,2 54804  53.2147 181.2528 0001256  82.6859 152.5906 15.10541421 63892,6912.685,95.33,535.418,533.681,0.0
54804.0,STARLINK-5422,PAYLOAD,2024-02-13 14:50:36,15.10472068,0.0001222,53.2152,178.4668,61.0848,299.0267,-0.00022565,-4.047e-05,0.0,0 STARLINK-5422,1 54804U 22175AY  24044.61848077 -.00004047  00000-0 -22565-3 0  9993,2 54804  53.2152 178.4668 0001222  61.0848 299.0267 15.10472068 66141,6912.896,95.334,535.606,533.917,0.0
54804.0,STARLINK-5422,PAYLOAD,2024-02-13 21:11:44,15.10472603,0.0001243,53.2157,177.2759,110.862,249.2506,-0.00014414,-2.691e-05,0.0,0 STARLINK-5422,1 54804U 22175AY  24044.88315277 -.00002691  00000-0 -14414-3 0  9990,2 54804  53.2157 177.2759 0001243 110.8620 249.2506 15.10472603 66180,6912.895,95.334,535.619,533.9,0.0
54804.0,STARLINK-5422,PAYLOAD,2024-02-14 00:22:19,15.10453187,0.0001052,53.216,176.6857,89.0327,271.0786,-0.0003525,-6.152e-05,0.0,0 STARLINK-5422,1 54804U 22175AY  24045.01550250 -.00006152  00000-0 -35250-3 0  9995,2 54804  53.2160 176.6857 0001052  89.0327 271.0786 15.10453187 64047,6912.954,95.336,535.546,534.092,0.0
54804.0,STARLINK-5422,PAYLOAD,2024-02-14 14:39:51,15.10461981,9.64e-05,53.2145,174.0046,63.1671,296.942,-0.00022587,-4.049e-05,0.0,0 STARLINK-5422,1 54804U 22175AY  24045.61101786 -.00004049  00000-0 -22587-3 0  9999,2 54804  53.2145 174.0046 0000964  63.1671 296.9420 15.10461981 66299,6912.927,95.335,535.458,534.126,0.0
54804.0,STARLINK-5422,PAYLOAD,2024-02-14 16:15:08,15.10473951,0.0001402,53.2159,173.7041,77.9082,282.2068,-3.297e-05,-8.41e-06,0.0,0 STARLINK-5422,1 54804U 22175AY  24045.67718216 -.00000841  00000-0 -32970-4 0  9991,2 54804  53.2159 173.7041 0001402  77.9082 282.2068 15.10473951 64140,6912.891,95.334,535.725,533.786,0.0
54804.0,STARLINK-5422,PAYLOAD,2024-02-15 14:29:06,15.10475053,0.0001561,53.215,169.5361,82.1663,277.9507,0.00057387,9.273e-05,0.0,0 STARLINK-5422,1 54804U 22175AY  24046.60354555  .00009273  00000-0  57387-3 0  9991,2 54804  53.2150 169.5361 0001561  82.1663 277.9507 15.10475053 66447,6912.887,95.334,535.831,533.673,0.0
54804.0,STARLINK-5422,PAYLOAD,2024-02-15 17:39:39,15.10485759,0.0001477,53.2149,168.9389,90.2082,269.908,0.00077309,0.00012604,0.0,0 STARLINK-5422,1 54804U 22175AY  24046.73587857  .00012604  00000-0  77309-3 0  9996,2 54804  53.2149 168.9389 0001477  90.2082 269.9080 15.10485759 64303,6912.855,95.334,535.741,533.699,0.0
54804.0,STARLINK-5422,PAYLOAD,2024-02-16 11:07:45,15.10489403,0.000165,53.2165,165.6618,95.7793,264.3389,0.0003714,5.898e-05,0.0,0 STARLINK-5422,1 54804U 22175AY  24047.46372395  .00005898  00000-0  37140-3 0  9992,2 54804  53.2165 165.6618 0001650  95.7793 264.3389 15.10489403 64415,6912.843,95.333,535.849,533.568,0.0
54804.0,STARLINK-5422,PAYLOAD,2024-02-16 14:18:19,15.10495709,0.0001583,53.2157,165.0681,91.1411,268.9764,0.00047425,7.615e-05,0.0,0 STARLINK-5422,1 54804U 22175AY  24047.59605767  .00007615  00000-0  47425-3 0  9994,2 54804  53.2157 165.0681 0001583  91.1411 268.9764 15.10495709 66596,6912.824,95.333,535.783,533.595,0.0
54804.0,STARLINK-5422,PAYLOAD,2024-02-16 17:28:52,15.10502281,0.0001503,53.2153,164.4704,91.3924,268.7241,0.00057144,9.24e-05,0.0,0 STARLINK-5422,1 54804U 22175AY  24047.72839015  .00009240  00000-0  57144-3 0  9999,2 54804  53.2153 164.4704 0001503  91.3924 268.7241 15.10502281 64459,6912.804,95.333,535.708,533.63,0.0
54804.0,STARLINK-5422,PAYLOAD,2024-02-17 10:56:59,15.10483251,0.0001542,53.2161,161.1956,102.2572,257.8594,0.0001202,1.709e-05,0.0,0 STARLINK-5422,1 54804U 22175AY  24048.45624249  .00001709  00000-0  12020-3 0  9997,2 54804  53.2161 161.1956 0001542 102.2572 257.8594 15.10483251 64562,6912.862,95.334,535.793,533.661,0.0
54804.0,STARLINK-5422,PAYLOAD,2024-02-17 14:07:33,15.10483083,0.0001625,53.2151,160.5995,101.4883,258.6292,0.00012053,1.715e-05,0.0,0 STARLINK-5422,1 54804U 22175AY  24048.58857915  .00001715  00000-0  12053-3 0  9992,2 54804  53.2151 160.5995 0001625 101.4883 258.6292 15.10483083 66744,6912.863,95.334,535.851,533.604,0.0
54804.0,STARLINK-5422,PAYLOAD,2024-02-18 13:56:48,15.10468241,0.0001224,53.2155,156.133,81.6018,278.5113,-0.00019121,-3.473e-05,0.0,0 STARLINK-5422,1 54804U 22175AY  24049.58111247 -.00003473  00000-0 -19121-3 0  9992,2 54804  53.2155 156.1330 0001224  81.6018 278.5113 15.10468241 66894,6912.908,95.335,535.619,533.927,0.0
54804.0,STARLINK-5422,PAYLOAD,2024-02-18 23:28:29,15.1047508,0.0001305,53.2171,154.3485,87.9048,272.2094,-5.9773e-05,-1.287e-05,0.0,0 STARLINK-5422,1 54804U 22175AY  24049.97811977 -.00001287  00000-0 -59773-4 0  9991,2 54804  53.2171 154.3485 0001305  87.9048 272.2094 15.10475080 64790,6912.887,95.334,535.654,533.85,0.0
54804.0,STARLINK-5422,PAYLOAD,2024-02-19 12:10:44,15.10491314,0.0001204,53.2158,151.966,88.4766,271.6365,0.00053111,8.564e-05,0.0,0 STARLINK-5422,1 54804U 22175AY  24050.50746312  .00008564  00000-0  53111-3 0  9994,2 54804  53.2158 151.9660 0001204  88.4766 271.6365 15.10491314 64875,6912.838,95.333,535.535,533.87,0.0
